STARLINK-32011          
1 60030U 24111Q   26068.33357202 -.00005549  00000+0 -17559-3 0  9999
2 60030  53.1604  76.9489 0001258  96.6358 263.4786 15.30159734 98984
PHISAT 2                
1 60470U 24149C   26068.78834181  .00008925  00000+0  31421-3 0  9996
2 60470  97.3806 148.6498 0001175 168.6230 191.5037 15.29548631 86792
